GPS BIIR-5  (PRN 22)    
1 26407U 00040A   26177.27244779  .00000080  00000+0  00000+0 0  9994
2 26407  54.8504 214.8013 0120911 302.5469  61.1141  2.00557847190135
GPS BIIR-8  (PRN 16)    
1 27663U 03005A   26177.15567986  .00000080  00000+0  00000+0 0  9998
2 27663  54.8811 214.6123 0148006  53.0952   2.3339  2.00560186171495
GPS BIIR-11 (PRN 19)    
1 28190U 04009A   26177.37504252 -.00000053  00000+0  00000+0 0  9991
2 28190  54.8219 275.3158 0116472 173.4943 193.2611  2.00554561163139
GPS BIIR-13 (PRN 02)    
1 28474U 04045A   26177.53209161 -.00000105  00000+0  00000+0 0  9993
2 28474  55.1303 324.5198 0169914 316.6329 228.4813  2.00556458158610
GPS BIIRM-1 (PRN 17)    
1 28874U 05038A   26177.42321523 -.00000047  00000+0  00000+0 0  9990
2 28874  54.8704 272.8045 0127987 296.2383 134.3021  2.00565172152026
INMARSAT 4-F2 (SOUTHPA*)
1 28899U 05044A   26177.57816975 -.00000254  00000+0  00000+0 0  9990
2 28899   5.1068  43.6837 0003298  41.0859 181.5625  1.00272050 75612
GPS BIIRM-2 (PRN 31)    
1 29486U 06042A   26177.46628734  .00000043  00000+0  00000+0 0  9999
2 29486  54.7118 150.9706 0106773  54.6587 305.6063  2.00569377144577
GPS BIIRM-3 (PRN 12)    
1 29601U 06052A   26177.39306010  .00000082  00000+0  00000+0 0  9994
2 29601  54.9344 213.6411 0084629  90.8415 270.2080  2.00558596143594
GPS BIIRM-4 (PRN 15)    
1 32260U 07047A   26177.19961716 -.00000076  00000+0  00000+0 0  9996
2 32260  54.1016  79.6941 0167104  87.5760 274.3492  2.00554914136999
COSMOS 2433 (720)       
1 32275U 07052A   26177.30077292 -.00000084  00000+0  00000+0 0  9997
2 32275  65.5713 315.6262 0002876 196.1254 163.8539  2.13104185145251
COSMOS 2432 (719)       
1 32276U 07052B   26176.85436133 -.00000085  00000+0  00000+0 0  9991
2 32276  65.5875 315.7691 0007440 328.8615 352.4942  2.13103155145266
GPS BIIRM-5 (PRN 29)    
1 32384U 07062A   26177.02337119 -.00000053  00000+0  00000+0 0  9991
2 32384  55.0244 273.7972 0035842 166.2118 194.0389  2.00560714135699
COSMOS 2434 (721)       
1 32393U 07065A   26177.48543221  .00000105  00000+0  00000+0 0  9994
2 32393  64.3185 191.6023 0001250 327.1544  64.2860  2.13101371143974
COSMOS 2436 (723)       
1 32395U 07065C   26177.50729759  .00000105  00000+0  00000+0 0  9991
2 32395  64.3272 191.6738 0017278 353.6044 186.8858  2.13100188143920
GPS BIIRM-6 (PRN 07)    
1 32711U 08012A   26177.11012545  .00000044  00000+0  00000+0 0  9993
2 32711  54.4985 149.5683 0211415 247.9482 109.7699  2.00572724133936
GPS BIIRM-8 (PRN 05)    
1 35752U 09043A   26177.34349432 -.00000085  00000+0  00000+0 0  9995
2 35752  56.2161  27.0922 0053802  83.5927  94.0235  2.00553956123542
COSMOS 2456 (730)       
1 36111U 09070A   26176.78374925 -.00000065  00000+0  00000+0 0  9995
2 36111  65.0164  70.6784 0004249 334.9853  36.3390  2.13103651128616
COSMOS 2457 (733)       
1 36112U 09070B   26174.95633448 -.00000070  00000+0  00000+0 0  9997
2 36112  65.0012  70.5847 0003066 122.1178  54.6156  2.13101046128575
COSMOS 2460 (732)       
1 36402U 10007C   26177.27951547 -.00000085  00000+0  00000+0 0  9998
2 36402  65.4147 314.1582 0002021 121.6586  39.2894  2.13101756126923
GPS BIIF-1  (PRN 25)    
1 36585U 10022A   26177.37049338  .00000086  00000+0  00000+0 0  9994
2 36585  54.2697 208.1920 0126418  66.1257 250.0099  2.00562964117775
BEIDOU-2 IGSO-1 (C06)   
1 36828U 10036A   26176.90245100 -.00000051  00000+0  00000+0 0  9995
2 36828  54.3048 162.8805 0059011 225.3330 318.2636  1.00269992 58186
BEIDOU-2 G4 (C04)       
1 37210U 10057A   26177.62604779 -.00000105  00000+0  00000+0 0  9995
2 37210   3.6706  68.8985 0004796 192.9286  38.2799  1.00271498 57387
BEIDOU-2 IGSO-2 (C07)   
1 37256U 10068A   26175.67652892 -.00000223  00000+0  00000+0 0  9990
2 37256  47.5326 271.7373 0056042 213.3814 139.3528  1.00281062 56867
BEIDOU-2 IGSO-3 (C08)   
1 37384U 11013A   26176.54644699 -.00000187  00000+0  00000+0 0  9995
2 37384  62.4191  40.0714 0035057 184.1159 353.6243  1.00266124 55744
GSAT-8 (GAGAN/PRN 127)  
1 37605U 11022A   26177.67659355  .00000094  00000+0  00000+0 0  9997
2 37605   2.1554  81.7182 0001639 185.2967 306.4261  1.00273017 53319
BEIDOU-2 IGSO-4 (C09)   
1 37763U 11038A   26176.93636431  .00000029  00000+0  00000+0 0  9995
2 37763  54.6029 165.5946 0159584 231.4886 307.8251  1.00284248 54738
GSAT0101 (GALILEO-PFM)  
1 37846U 11060A   26177.23375949 -.00000096  00000+0  00000+0 0  9995
2 37846  56.9911 341.5158 0002838  55.8370 304.1849  1.70475865 91278
GSAT0102 (GALILEO-FM2)  
1 37847U 11060B   26176.58449965 -.00000097  00000+0  00000+0 0  9994
2 37847  56.9921 341.5338 0002831  14.5912 352.5946  1.70476098 91271
COSMOS 2476 (744)       
1 37867U 11064A   26173.36699142 -.00000061  00000+0  00000+0 0  9998
2 37867  65.2731  72.6963 0022606 238.5611 299.8582  2.13103651113877
COSMOS 2477 (745)       
1 37868U 11064B   26177.36350275 -.00000060  00000+0  00000+0 0  9993
2 37868  65.2816  72.6408 0019406 238.9829 305.7504  2.13102971113959
COSMOS 2475 (743)       
1 37869U 11064C   26177.41892962 -.00000060  00000+0  00000+0 0  9994
2 37869  65.2886  72.6605 0025307 252.6245 289.7157  2.13101877113968
BEIDOU-2 IGSO-5 (C10)   
1 37948U 11073A   26175.65702808 -.00000196  00000+0  00000+0 0  9995
2 37948  47.6633 271.4526 0114223 222.0346 107.5350  1.00272136 53204
LUCH 5A (SDCM/PRN 140)  
1 37951U 11074B   26177.79166108 -.00000047  00000+0  00000+0 0  9999
2 37951   8.7778  73.6684 0002705  31.4807 261.6864  1.00272377 53140
BEIDOU-2 G5 (C05)       
1 38091U 12008A   26177.74855803  .00000064  00000+0  00000+0 0  9993
2 38091   3.5980  69.6465 0008668 276.0371 257.3927  1.00275757 52464
BEIDOU-2 M3 (C11)       
1 38250U 12018A   26176.78001372 -.00000106  00000+0  00000+0 0  9996
2 38250  55.7497 304.5848 0020315 273.3590  86.3983  1.86229866 96100
BEIDOU-2 M4 (C12)       
1 38251U 12018B   26177.24927972 -.00000103  00000+0  00000+0 0  9999
2 38251  55.6492 303.7834 0011702 273.7859  86.0713  1.86229631 96112
SES-5 (EGNOS/PRN 136)   
1 38652U 12036A   26177.73791816  .00000043  00000+0  00000+0 0  9996
2 38652   0.0452 318.0989 0002630 150.5218  76.8565  1.00261199 44552
BEIDOU-2 M6 (C14)       
1 38775U 12050B   26176.95897983 -.00000089  00000+0  00000+0 0  9994
2 38775  56.5518  62.6042 0013535 358.1579   1.8786  1.86231118 93471
GSAT-10 (GAGAN/PRN 128) 
1 38779U 12051B   26177.68205359 -.00000154  00000+0  00000+0 0  9993
2 38779   0.0594 259.0415 0008169 191.7626 152.5629  1.00272048 50195
GPS BIIF-3  (PRN 24)    
1 38833U 12053A   26177.29038387  .00000028  00000+0  00000+0 0  9997
2 38833  53.5875 143.2264 0180813  65.8944 295.9517  2.00567692 99620
GSAT0103 (GALILEO-FM3)  
1 38857U 12055A   26177.27442491 -.00000038  00000+0  00000+0 0  9990
2 38857  55.8119 101.2962 0004643 306.5520  53.3783  1.70473541 85162
BEIDOU-2 G6 (C02)       
1 38953U 12059A   26177.75351124 -.00000168  00000+0  00000+0 0  9990
2 38953   4.4461  73.4247 0009722 328.6677 228.0807  1.00271369 50006
LUCH 5B (SDCM/PRN 125)  
1 38977U 12061A   26177.44850266 -.00000136  00000+0  00000+0 0  9991
2 38977  10.5037  49.7912 0002511 136.3934 233.5935  1.00272700 49701
COSMOS 2485 (747)       
1 39155U 13019A   26177.29519291 -.00000060  00000+0  00000+0 0  9993
2 39155  65.4249  73.2985 0022912 233.1072 126.7203  2.13103278102475
GPS BIIF-4  (PRN 27)    
1 39166U 13023A   26176.65900812 -.00000046  00000+0  00000+0 0  9996
2 39166  54.4973 268.6283 0141475  51.0602 310.2306  2.00563550 96051
IRNSS-1A                
1 39199U 13034A   26176.74993227  .00000048  00000+0  00000+0 0  9997
2 39199  35.7396  63.7472 0018406 178.4200 356.6391  1.00277689 47459
GPS BIIF-5  (PRN 30)    
1 39533U 14008A   26177.15932725  .00000041  00000+0  00000+0 0  9996
2 39533  53.6559 148.9537 0084215 231.3935 127.8246  2.00560425 89866
ASTRA 5B (EGNOS/PRN 123)
1 39617U 14011B   26177.67028909  .00000148  00000+0  00000+0 0  9998
2 39617   0.0532 325.0178 0002215 114.2470 100.2986  1.00272462 44764
COSMOS 2492 (754)       
1 39620U 14012A   26174.90776451 -.00000082  00000+0  00000+0 0  9996
2 39620  65.2933 313.7069 0010214 323.0851  36.8355  2.13103141 95380
IRNSS-1B                
1 39635U 14017A   26176.74975894  .00000139  00000+0  00000+0 0  9995
2 39635  28.9107 240.2561 0023692 197.5967 161.0226  1.00269592 44876
LUCH 5V (SDCM/PRN 141)  
1 39727U 14023A   26177.68439360 -.00000262  00000+0  00000+0 0  9999
2 39727   5.1566  69.6542 0002465  49.0052 137.2857  1.00271976 44455
GPS BIIF-6  (PRN 06)    
1 39741U 14026A   26176.93636039 -.00000104  00000+0  00000+0 0  9992
2 39741  56.4938 331.1769 0038119 326.3471  33.4038  2.00560487 88716
COSMOS 2500 (755)       
1 40001U 14032A   26177.42369457 -.00000084  00000+0  00000+0 0  9999
2 40001  65.2268 313.3678 0007725 185.8018 174.1783  2.13105965 93655
GPS BIIF-7  (PRN 09)    
1 40105U 14045A   26177.02815772 -.00000068  00000+0  00000+0 0  9992
2 40105  55.3587  88.1127 0033686 118.2750 242.0678  2.00559107 86251
GSAT0201 (GALILEO 5)    
1 40128U 14050A   26177.04069355 -.00000070  00000+0  00000+0 0  9996
2 40128  48.8656 273.0732 1675889 179.7342 180.4220  1.85520188 78487
GSAT0202 (GALILEO 6)    
1 40129U 14050B   26177.29620125 -.00000065  00000+0  00000+0 0  9996
2 40129  48.8820 272.1482 1677100 180.4759 179.3977  1.85520779 80656
IRNSS-1C                
1 40269U 14061A   26176.68398682 -.00000155  00000+0  00000+0 0  9995
2 40269   6.5386  88.7700 0022592   3.4967 150.6688  1.00267985 42772
GPS BIIF-8  (PRN 03)    
1 40294U 14068A   26176.89738811 -.00000085  00000+0  00000+0 0  9997
2 40294  56.9936  30.6191 0067228  70.9208 289.8621  2.00576883 85389
COSMOS 2501 (702K)      
1 40315U 14075A   26177.21663207  .00000105  00000+0  00000+0 0  9994
2 40315  63.6151 190.0588 0022237 210.4369 149.4832  2.13109644 90043
GPS BIIF-9  (PRN 26)    
1 40534U 15013A   26177.03735334  .00000087  00000+0  00000+0 0  9990
2 40534  53.1674 203.8114 0109747  40.1916 320.6840  2.00550980 82004
